SL-16 R/B               
1 25400U 98043G   25355.35846172  .00000035  00000+0  33484-4 0  9994
2 25400  98.8139 303.2252 0008877 238.7543 121.2767 14.26027370427821
SL-16 R/B               
1 25407U 98045B   25355.38204716  .00000209  00000+0  12956-3 0  9991
2 25407  71.0116 346.2516 0006460 162.4088 197.7260 14.16175669416018
ISS (ZARYA)             
1 25544U 98067A   25355.56954477  .00009066  00000+0  16837-3 0  9995
2 25544  51.6324  98.7522 0003165 281.5679  78.4955 15.49703708544228
CZ-4B R/B               
1 25732U 99025C   25355.06778979  .00000049  00000+0  44639-4 0  9999
2 25732  98.6755  36.1612 0036642 209.6182 179.7199 14.18245565377022
OKEAN-O                 
1 25860U 99039A   25355.44249373  .00000624  00000+0  89060-4 0  9995
2 25860  97.9590  51.0685 0001015 112.0419 248.0901 14.80175613422819
SL-16 R/B               
1 25861U 99039B   25355.15908419  .00000412  00000+0  59203-4 0  9998
2 25861  98.0114  49.3105 0015561 148.0584 212.1575 14.81597378425239
DELTA 2 R/B             
1 25876U 99041E   25355.13993418  .00000588  00000+0  13483-3 0  9991
2 25876  51.7609 254.9130 0504528 116.5231 248.8336 14.11421328351937
HELIOS 1B               
1 25977U 99064A   25355.28036649  .00001393  00000+0  16079-3 0  9997
2 25977  98.1757 250.1993 0001203  32.9309 327.1981 14.87312710673607
TERRA                   
1 25994U 99068A   25355.58997148  .00000384  00000+0  87571-4 0  9998
2 25994  97.9735  46.9492 0003512  76.8406  91.6789 14.60911086383670
SL-16 R/B               
1 26070U 00006B   25355.44775779 -.00000077  00000+0 -14753-4 0  9990
2 26070  71.0018 262.3482 0018585 296.8330  63.0892 14.15808352337489
TITAN 4B R/B            
1 26474U 00047B   25355.55972670  .00002653  00000+0  17386-3 0  9998
2 26474  67.9896 260.0835 0038284 133.9622 226.4696 15.08839594381127
ENVISAT                 
1 27386U 02009A   25352.94754304  .00000081  00000+0  39999-4 0  9991
2 27386  98.3609 303.5309 0001126  84.8976 298.2993 14.39001403247569
